{"type": "FeatureCollection", "features": [ {"type": "Feature", "properties": {"norad_id": 30447, "name": "FENGYUN 1C DEB", "group": "fengyun-1c-debris", "lat": -63.13396535246062, "lon": -129.40487926690508, "alt_km": 706.20255689018, "timestamp": "2025-12-16T13:52:37.799809+00:00", "meta": {"OBJECT_NAME": "FENGYUN 1C DEB", "OBJECT_ID": "1999-025AFJ", "EPOCH": "2025-12-15T13:32:32.783712", "MEAN_MOTION": 14.56655947, "ECCENTRICITY": 0.00601757, "INCLINATION": 98.9727, "RA_OF_ASC_NODE": 211.3311, "ARG_OF_PERICENTER": 22.2918, "MEAN_ANOMALY": 359.8274, "EPHEMERIS_TYPE": 0, "CLASSIFICATION_TYPE": "U", "NORAD_CAT_ID": 30447, "ELEMENT_SET_NO": 999, "REV_AT_EPOCH": 98137, "BSTAR": 0.001537699, "MEAN_MOTION_DOT": 6.984e-05, "MEAN_MOTION_DDOT": 0}, "tle": {"line1": "1 30447U 99025AFJ 25349.56426833  .00006984  00000+0  15377-2 0  9994", "line2": "2 30447  98.9727 211.3311 0060175  22.2918 359.8274 14.56655947981375"}}, "geometry": {"type": "Point", "coordinates": [-129.40487926690508, -63.13396535246062]}}, {"type": "Feature", "properties": {"norad_id": 30448, "name": "FENGYUN 1C DEB", "group": "fengyun-1c-debris", "lat": 77.26024447564295, "lon": 38.81925041913083, "alt_km": 765.240848618515, "timestamp": "2025-12-16T13:52:37.799820+00:00", "meta": {"OBJECT_NAME": "FENGYUN 1C DEB", "OBJECT_ID": "1999-025AFK", "EPOCH": "2025-12-15T19:39:35.177760", "MEAN_MOTION": 14.35167066, "ECCENTRICITY": 0.0016896, "INCLINATION": 98.8312, "RA_OF_ASC_NODE": 81.486, "ARG_OF_PERICENTER": 2.2788, "MEAN_ANOMALY": 118.8085, "EPHEMERIS_TYPE": 0, "CLASSIFICATION_TYPE": "U", "NORAD_CAT_ID": 30448, "ELEMENT_SET_NO": 999, "REV_AT_EPOCH": 97382, "BSTAR": 0.0013011815, "MEAN_MOTION_DOT": 3.679e-05, "MEAN_MOTION_DDOT": 0}, "tle": {"line1": "1 30448U 99025AFK 25349.81915715  .00003679  00000+0  13012-2 0  9997", "line2": "2 30448  98.8312  81.4860 0016896   2.2788 118.8085 14.35167066973825"}}, "geometry": {"type": "Point", "coordinates": [38.81925041913083, 77.26024447564295]}}, {"type": "Feature", "properties": {"norad_id": 30450, "name": "FENGYUN 1C DEB", "group": "fengyun-1c-debris", "lat": -33.17751247382685, "lon": 179.19957739293412, "alt_km": 565.5790079915778, "timestamp": "2025-12-16T13:52:37.799832+00:00", "meta": {"OBJECT_NAME": "FENGYUN 1C DEB", "OBJECT_ID": "1999-025AFM", "EPOCH": "2025-12-15T13:00:16.710048", "MEAN_MOTION": 14.61804637, "ECCENTRICITY": 0.01892168, "INCLINATION": 98.0807, "RA_OF_ASC_NODE": 3.5158, "ARG_OF_PERICENTER": 199.4455, "MEAN_ANOMALY": 322.7949, "EPHEMERIS_TYPE": 0, "CLASSIFICATION_TYPE": "U", "NORAD_CAT_ID": 30450, "ELEMENT_SET_NO": 999, "REV_AT_EPOCH": 99583, "BSTAR": 0.00041639059, "MEAN_MOTION_DOT": 2.628e-05, "MEAN_MOTION_DDOT": 0}, "tle": {"line1": "1 30450U 99025AFM 25349.54186007  .00002628  00000+0  41639-3 0  9994", "line2": "2 30450  98.0807   3.5158 0189216 199.4455 322.7949 14.61804637995832"}}, "geometry": {"type": "Point", "coordinates": [179.19957739293412, -33.17751247382685]}}, {"type": "Feature", "properties": {"norad_id": 30452, "name": "FENGYUN 1C DEB", "group": "fengyun-1c-debris", "lat": 71.6186754882967, "lon": 100.15247384243992, "alt_km": 705.0737227029686, "timestamp": "2025-12-16T13:52:37.799845+00:00", "meta": {"OBJECT_NAME": "FENGYUN 1C DEB", "OBJECT_ID": "1999-025AFP", "EPOCH": "2025-12-15T08:18:40.807296", "MEAN_MOTION": 14.64669219, "ECCENTRICITY": 0.00494975, "INCLINATION": 99.3199, "RA_OF_ASC_NODE": 128.3763, "ARG_OF_PERICENTER": 244.7464, "MEAN_ANOMALY": 177.5408, "EPHEMERIS_TYPE": 0, "CLASSIFICATION_TYPE": "U", "NORAD_CAT_ID": 30452, "ELEMENT_SET_NO": 999, "REV_AT_EPOCH": 98145, "BSTAR": 0.0027046201, "MEAN_MOTION_DOT": 0.00014613, "MEAN_MOTION_DDOT": 0}, "tle": {"line1": "1 30452U 99025AFP 25349.34630564  .00014613  00000+0  27046-2 0  9998", "line2": "2 30452  99.3199 128.3763 0049497 244.7464 177.5408 14.64669219981457"}}, "geometry": {"type": "Point", "coordinates": [100.15247384243992, 71.6186754882967]}}, {"type": "Feature", "properties": {"norad_id": 30453, "name": "FENGYUN 1C DEB", "group": "fengyun-1c-debris", "lat": -51.03988959444549, "lon": 73.37211881854701, "alt_km": 819.4782121305097, "timestamp": "2025-12-16T13:52:37.799855+00:00", "meta": {"OBJECT_NAME": "FENGYUN 1C DEB", "OBJECT_ID": "1999-025AFQ", "EPOCH": "2025-12-15T04:32:14.925696", "MEAN_MOTION": 14.2477675, "ECCENTRICITY": 0.01158341, "INCLINATION": 98.8136, "RA_OF_ASC_NODE": 60.9159, "ARG_OF_PERICENTER": 219.2179, "MEAN_ANOMALY": 166.4001, "EPHEMERIS_TYPE": 0, "CLASSIFICATION_TYPE": "U", "NORAD_CAT_ID": 30453, "ELEMENT_SET_NO": 999, "REV_AT_EPOCH": 97269, "BSTAR": 0.0010795597, "MEAN_MOTION_DOT": 2.653e-05, "MEAN_MOTION_DDOT": 0}, "tle": {"line1": "1 30453U 99025AFQ 25349.18906164  .00002653  00000+0  10796-2 0  9998", "line2": "2 30453  98.8136  60.9159 0115834 219.2179 166.4001 14.24776750972699"}}, "geometry": {"type": "Point", "coordinates": [73.37211881854701, -51.03988959444549]}}, {"type": "Feature", "properties": {"norad_id": 30454, "name": "FENGYUN 1C DEB", "group": "fengyun-1c-debris", "lat": 2.167497799980352, "lon": 140.79208601420618, "alt_km": 720.7072472483806, "timestamp": "2025-12-16T13:52:37.799866+00:00", "meta": {"OBJECT_NAME": "FENGYUN 1C DEB", "OBJECT_ID": "1999-025AFR", "EPOCH": "2025-12-14T22:20:25.636128", "MEAN_MOTION": 14.1540473, "ECCENTRICITY": 0.01711, "INCLINATION": 98.1341, "RA_OF_ASC_NODE": 318.9778, "ARG_OF_PERICENTER": 188.6859, "MEAN_ANOMALY": 239.905, "EPHEMERIS_TYPE": 0, "CLASSIFICATION_TYPE": "U", "NORAD_CAT_ID": 30454, "ELEMENT_SET_NO": 999, "REV_AT_EPOCH": 95991, "BSTAR": 0.0014848774, "MEAN_MOTION_DOT": 3.3e-05, "MEAN_MOTION_DDOT": 0}, "tle": {"line1": "1 30454U 99025AFR 25348.93085227  .00003300  00000+0  14849-2 0  9992", "line2": "2 30454  98.1341 318.9778 0171100 188.6859 239.9050 14.15404730959912"}}, "geometry": {"type": "Point", "coordinates": [140.79208601420618, 2.167497799980352]}}, {"type": "Feature", "properties": {"norad_id": 30462, "name": "FENGYUN 1C DEB", "group": "fengyun-1c-debris", "lat": 28.421995803349013, "lon": 163.54180640374724, "alt_km": 866.3690006079632, "timestamp": "2025-12-16T13:52:37.799876+00:00", "meta": {"OBJECT_NAME": "FENGYUN 1C DEB", "OBJECT_ID": "1999-025AFZ", "EPOCH": "2025-12-15T21:52:04.345824", "MEAN_MOTION": 14.06267061, "ECCENTRICITY": 0.01388927, "INCLINATION": 98.8168, "RA_OF_ASC_NODE": 338.0737, "ARG_OF_PERICENTER": 241.245, "MEAN_ANOMALY": 136.3249, "EPHEMERIS_TYPE": 0, "CLASSIFICATION_TYPE": "U", "NORAD_CAT_ID": 30462, "ELEMENT_SET_NO": 999, "REV_AT_EPOCH": 96838, "BSTAR": 0.00030404582, "MEAN_MOTION_DOT": 5.03e-06, "MEAN_MOTION_DDOT": 0}, "tle": {"line1": "1 30462U 99025AFZ 25349.91116141  .00000503  00000+0  30405-3 0  9999", "line2": "2 30462  98.8168 338.0737 0138892 241.2450 136.3249 14.06267061968382"}}, "geometry": {"type": "Point", "coordinates": [163.54180640374724, 28.421995803349013]}}, {"type": "Feature", "properties": {"norad_id": 30464, "name": "FENGYUN 1C DEB", "group": "fengyun-1c-debris", "lat": -76.63511527359495, "lon": 179.9116777216308, "alt_km": 789.1390400904584, "timestamp": "2025-12-16T13:52:37.799886+00:00", "meta": {"OBJECT_NAME": "FENGYUN 1C DEB", "OBJECT_ID": "1999-025AGB", "EPOCH": "2025-12-15T09:27:12.100320", "MEAN_MOTION": 14.10246585, "ECCENTRICITY": 0.01083741, "INCLINATION": 98.8371, "RA_OF_ASC_NODE": 39.6518, "ARG_OF_PERICENTER": 251.0029, "MEAN_ANOMALY": 119.3096, "EPHEMERIS_TYPE": 0, "CLASSIFICATION_TYPE": "U", "NORAD_CAT_ID": 30464, "ELEMENT_SET_NO": 999, "REV_AT_EPOCH": 97101, "BSTAR": 6.5785272e-05, "MEAN_MOTION_DOT": 7.9e-07, "MEAN_MOTION_DDOT": 0}, "tle": {"line1": "1 30464U 99025AGB 25349.39389005  .00000079  00000+0  65785-4 0  9992", "line2": "2 30464  98.8371  39.6518 0108374 251.0029 119.3096 14.10246585971012"}}, "geometry": {"type": "Point", "coordinates": [179.9116777216308, -76.63511527359495]}}, {"type": "Feature", "properties": {"norad_id": 30465, "name": "FENGYUN 1C DEB", "group": "fengyun-1c-debris", "lat": 69.96783495645855, "lon": 53.631461558203085, "alt_km": 764.8156432507476, "timestamp": "2025-12-16T13:52:37.799896+00:00", "meta": {"OBJECT_NAME": "FENGYUN 1C DEB", "OBJECT_ID": "1999-025AGC", "EPOCH": "2025-12-15T19:42:13.204224", "MEAN_MOTION": 14.3391047, "ECCENTRICITY": 0.00163577, "INCLINATION": 98.8309, "RA_OF_ASC_NODE": 78.0967, "ARG_OF_PERICENTER": 21.1269, "MEAN_ANOMALY": 104.0471, "EPHEMERIS_TYPE": 0, "CLASSIFICATION_TYPE": "U", "NORAD_CAT_ID": 30465, "ELEMENT_SET_NO": 999, "REV_AT_EPOCH": 97402, "BSTAR": 0.0012253161, "MEAN_MOTION_DOT": 3.375e-05, "MEAN_MOTION_DDOT": 0}, "tle": {"line1": "1 30465U 99025AGC 25349.82098616  .00003375  00000+0  12253-2 0  9998", "line2": "2 30465  98.8309  78.0967 0016357  21.1269 104.0471 14.33910470974028"}}, "geometry": {"type": "Point", "coordinates": [53.631461558203085, 69.96783495645855]}}, {"type": "Feature", "properties": {"norad_id": 30466, "name": "FENGYUN 1C DEB", "group": "fengyun-1c-debris", "lat": -35.85720125744912, "lon": -155.7844453833, "alt_km": 899.8759050664867, "timestamp": "2025-12-16T13:52:37.799906+00:00", "meta": {"OBJECT_NAME": "FENGYUN 1C DEB", "OBJECT_ID": "1999-025AGD", "EPOCH": "2025-12-15T20:48:49.445280", "MEAN_MOTION": 14.22549426, "ECCENTRICITY": 0.01163468, "INCLINATION": 98.6555, "RA_OF_ASC_NODE": 29.8377, "ARG_OF_PERICENTER": 15.2424, "MEAN_ANOMALY": 162.5403, "EPHEMERIS_TYPE": 0, "CLASSIFICATION_TYPE": "U", "NORAD_CAT_ID": 30466, "ELEMENT_SET_NO": 999, "REV_AT_EPOCH": 97395, "BSTAR": 0.00090365866, "MEAN_MOTION_DOT": 2.119e-05, "MEAN_MOTION_DDOT": 0}, "tle": {"line1": "1 30466U 99025AGD 25349.86723895  .00002119  00000+0  90366-3 0  9994", "line2": "2 30466  98.6555  29.8377 0116346  15.2424 162.5403 14.22549426973957"}}, "geometry": {"type": "Point", "coordinates": [-155.7844453833, -35.85720125744912]}}]}